NOAA 15                 
1 25338U 98030A   20234.89998007  .00000017  00000-0  25689-4 0  9994
2 25338  98.7141 259.6069 0011515  74.7629 285.4823 14.25986256158305
DMSP 5D-3 F15 (USA 147) 
1 25991U 99067A   20234.92832941 -.00000105  00000-0 -29763-4 0  9995
2 25991  98.9753 206.8141 0008855 276.9612 175.7849 14.16474940 69691
METEOSAT-8 (MSG-1)      
1 27509U 02040B   20234.67053198  .00000125  00000-0  00000+0 0  9996
2 27509   6.8350  53.8114 0001342  81.1934 118.2240  1.00274928 65939
DMSP 5D-3 F16 (USA 172) 
1 28054U 03048A   20234.91464503 -.00000102  00000-0 -30408-4 0  9991
2 28054  98.9172 213.7649 0008341  43.0391   8.4945 14.13647807869032
NOAA 18                 
1 28654U 05018A   20234.89738200  .00000066  00000-0  60153-4 0  9998
2 28654  99.0387 291.9206 0014954  50.2086 310.0400 14.12533699786154
METEOSAT-9 (MSG-2)      
1 28912U 05049B   20234.82332279  .00000007  00000-0  00000+0 0  9993
2 28912   4.5589  69.8742 0002163  21.6575 179.0360  1.00277585 53761
FORMOSAT-3 FM6          
1 29047U 06011A   20234.73052360  .00000008  00000-0  19633-4 0  9991
2 29047  71.9806 336.7573 0051901 308.2268  51.4201 14.28747856750652
FORMOSAT-3 FM1          
1 29048U 06011B   20234.75082894  .00000012  00000-0  21329-4 0  9999
2 29048  71.9643 247.5483 0045856 267.6488  91.9397 14.28712018753138
FORMOSAT-3 FM5          
1 29049U 06011C   20234.88821954  .00000011  00000-0  20788-4 0  9999
2 29049  72.0201  59.2871 0036535 292.5256  67.2014 14.28793318748941
FORMOSAT-3 FM3          
1 29050U 06011D   20234.89758556  .00000041  00000-0  18938-4 0  9996
2 29050  72.0150 198.6726 0050773 208.0399 151.8018 14.58938990765878
FORMOSAT-3 FM4          
1 29051U 06011E   20234.67689582  .00000055  00000-0  37114-4 0  9997
2 29051  72.0067 321.6485 0067926 173.6324 186.5693 14.28824741751503
FORMOSAT-3 FM2          
1 29052U 06011F   20234.88171978  .00000004  00000-0  17691-4 0  9998
2 29052  72.0350  35.6294 0041643 253.3717 106.2845 14.28930235749049
GOES 13                 
1 29155U 06018A   20234.88984306  .00000026  00000-0  00000-0 0  9992
2 29155   0.0680 177.9625 0007662  18.9927 155.2231  1.00272312 22058
METOP-A                 
1 29499U 06044A   20234.91933262 -.00000011  00000-0  14329-4 0  9999
2 29499  98.5172 279.4472 0001794  90.0750  84.2627 14.21487723718008
DMSP 5D-3 F17 (USA 191) 
1 29522U 06050A   20234.93860134 -.00000044  00000-0  11991-6 0  9992
2 29522  98.8011 250.3493 0009805 358.3431   1.7708 14.14014897711960
FENGYUN 3A              
1 32958U 08026A   20234.87542979 -.00000026  00000-0  71964-5 0  9996
2 32958  98.4108 217.2392 0009377 141.1371 219.0481 14.18631301634106
FENGYUN 2E              
1 33463U 08066A   20234.46421905 -.00000216  00000-0  00000-0 0  9991
2 33463   4.4728  68.3416 0002452 292.8013 222.8829  1.00270872 42772
NOAA 19                 
1 33591U 09005A   20234.83498716  .00000014  00000-0  33242-4 0  9995
2 33591  99.1963 241.8850 0013002 251.3864 108.5894 14.12428053594624
GOES 14                 
1 35491U 09033A   20234.14494083 -.00000106  00000-0  00000+0 0  9998
2 35491   0.4383 272.1295 0008853  60.8430 304.7811  1.00271352 40835
METEOR-M 1              
1 35865U 09049A   20234.87455618  .00000006  00000-0  21387-4 0  9995
2 35865  98.4429 219.1485 0002709  28.1181 332.0144 14.22246703567213
DMSP 5D-3 F18 (USA 210) 
1 35951U 09057A   20234.88106993  .00000061  00000-0  55181-4 0  9990
2 35951  98.6486 222.5836 0011012 175.4510 184.6765 14.13294395559245
GOES 15                 
1 36411U 10008A   20234.59683527  .00000038  00000-0  00000-0 0  9991
2 36411   0.0379 127.6589 0001888 334.8531 314.8745  1.00281972 38357
COMS 1                  
1 36744U 10032A   20234.83139501 -.00000358  00000-0  00000-0 0  9998
2 36744   0.0216  96.0940 0000723  26.3306 275.6182  1.00272952 29779
FENGYUN 3B              
1 37214U 10059A   20234.85291042 -.00000003  00000-0  21935-4 0  9992
2 37214  99.0500 217.6116 0018052  82.2547 278.0666 14.15955121506932
SUOMI NPP               
1 37849U 11061A   20234.87794076  .00000010  00000-0  25736-4 0  9997
2 37849  98.7381 171.9307 0001584  79.5088 317.0953 14.19541976456912
FENGYUN 2F              
1 38049U 12002A   20234.49070350 -.00000371  00000-0  00000-0 0  9990
2 38049   2.2091  83.3842 0000657  79.5366  96.2782  1.00274677 31576
METEOSAT-10 (MSG-3)     
1 38552U 12035B   20234.82346763  .00000049  00000-0  00000-0 0  9997
2 38552   1.3539 343.7314 0001584 133.2363 159.4871  1.00272268 29576
METOP-B                 
1 38771U 12049A   20234.90097716 -.00000006  00000-0  17326-4 0  9992
2 38771  98.6866 293.1927 0001692 134.0647  39.7256 14.21502592411321
FENGYUN 3C              
1 39260U 13052A   20234.85404481 -.00000022  00000-0  10212-4 0  9991
2 39260  98.5450 282.5846 0011642  33.6591 326.5321 14.15843621357809
METEOR-M 2              
1 40069U 14037A   20234.83112765 -.00000023  00000-0  87432-5 0  9993
2 40069  98.4979 269.8799 0006880  91.7770 268.4190 14.20674562317491
HIMAWARI-8              
1 40267U 14060A   20234.85278365 -.00000289  00000-0  00000+0 0  9994
2 40267   0.0200 179.2862 0000941   6.0853 232.9213  1.00271193 21553
FENGYUN 2G              
1 40367U 14090A   20234.53854404 -.00000312  00000-0  00000-0 0  9995
2 40367   2.2331  93.7601 0001077 330.4675 199.2408  1.00263401 20723
METEOSAT-11 (MSG-4)     
1 40732U 15034A   20234.82324656 -.00000013  00000-0  00000-0 0  9991
2 40732   0.6882 271.7944 0003475 231.2095 124.3717  1.00278050 18723
ELEKTRO-L 2             
1 41105U 15074A   20234.87492572 -.00000135  00000-0  00000-0 0  9993
2 41105   1.3518  96.5801 0006206  85.6361  89.4014  1.00215389 17208
HIMAWARI-9              
1 41836U 16064A   20234.85278365 -.00000288  00000-0  00000+0 0  9992
2 41836   0.0461 280.7852 0000877 202.5799 294.9981  1.00273500 13995
GOES 16                 
1 41866U 16071A   20234.79091755 -.00000262  00000-0  00000-0 0  9995
2 41866   0.0386 119.5063 0000491  88.2588 332.3319  1.00270773 13805
FENGYUN 4A              
1 41882U 16077A   20234.08330606 -.00000342  00000-0  00000-0 0  9991
2 41882   0.0968  85.8890 0003887  58.7462 319.7420  1.00265014 13665
CYGFM05                 
1 41884U 16078A   20234.80467930  .00000213  00000-0  12955-4 0  9997
2 41884  34.9574  14.0027 0016680 269.8920  89.9880 15.14665624204020
CYGFM04                 
1 41885U 16078B   20234.75286384  .00000247  00000-0  14539-4 0  9991
2 41885  34.9506   7.1671 0015054 279.7282  80.1729 15.15178771204083
CYGFM02                 
1 41886U 16078C   20234.81159963  .00000218  00000-0  13025-4 0  9998
2 41886  34.9598   8.5787 0015790 276.2657  83.6256 15.15177656204087
CYGFM01                 
1 41887U 16078D   20234.78140769  .00000227  00000-0  13774-4 0  9990
2 41887  34.9541  15.3846 0017142 270.2751  89.5996 15.14478106204001
CYGFM08                 
1 41888U 16078E   20234.82113543  .00000219  00000-0  13200-4 0  9991
2 41888  34.9512  10.6463 0016305 277.4888  82.3970 15.14893889204049
CYGFM06                 
1 41889U 16078F   20234.79076576  .00000228  00000-0  13584-4 0  9997
2 41889  34.9592   7.3995 0014736 276.1188  83.7844 15.15171941204084
CYGFM07                 
1 41890U 16078G   20234.76920723  .00000241  00000-0  14260-4 0  9995
2 41890  34.9529   6.5964 0014498 279.0749  80.8321 15.15170178204082
CYGFM03                 
1 41891U 16078H   20234.63303591  .00000241  00000-0  14225-4 0  9991
2 41891  34.9562   7.7076 0013994 276.6491  83.2628 15.15165632204068
FENGYUN 3D              
1 43010U 17072A   20234.83884721 -.00000036  00000-0  36267-5 0  9996
2 43010  98.7528 173.4334 0000325 237.7559 122.3572 14.19746773143472
NOAA 20                 
1 43013U 17073A   20234.83531994 -.00000013  00000-0  14542-4 0  9997
2 43013  98.7194 171.7767 0001319 101.5583 258.5741 14.19559695142939
GOES 17                 
1 43226U 18022A   20234.70673490  .00000084  00000-0  00000-0 0  9999
2 43226   0.0551 286.5772 0000228 252.9065 268.2281  1.00273004  9092
FENGYUN 2H              
1 43491U 18050A   20234.53453119 -.00000141  00000-0  00000-0 0  9994
2 43491   0.5083 271.2914 0003061 238.2573  92.2365  1.00274824  8198
METOP-C                 
1 43689U 18087A   20234.83406416 -.00000012  00000-0  14245-4 0  9991
2 43689  98.6929 293.4599 0002903 136.0646 224.0763 14.21500901 92880
GEO-KOMPSAT-2A          
1 43823U 18100A   20234.90319016 -.00000358  00000-0  00000-0 0  9997
2 43823   0.0080 157.9232 0002022 306.6148 319.5299  1.00273654  6296
IOD-1 GEMS              
1 44385U 98067QK  20234.66704292  .00013749  00000-0  15992-3 0  9994
2 44385  51.6407   4.0420 0001561 218.8640 141.2242 15.62030641 64689
METEOR-M2 2             
1 44387U 19038A   20234.86811730 -.00000032  00000-0  50060-5 0  9994
2 44387  98.6248 193.6302 0002367  63.5949 296.5473 14.23680500 58843
